{
    "links": {
        "self": "http://www.neowsapp.com/rest/v1/neo/3582663?api_key=iIulBulltgU6a56xZRHN4H3l9WmuAYTsLGpBGhQ2"
    },
    "id": "3582663",
    "neo_reference_id": "3582663",
    "name": "(2011 UN91)",
    "designation": "2011 UN91",
    "nasa_jpl_url": "http://ssd.jpl.nasa.gov/sbdb.cgi?sstr=3582663",
    "absolute_magnitude_h": 25.6,
    "estimated_diameter": {
        "kilometers": {
            "estimated_diameter_min": 0.0201629919,
            "estimated_diameter_max": 0.0450858206
        },
        "meters": {
            "estimated_diameter_min": 20.1629919443,
            "estimated_diameter_max": 45.0858206172
        },
        "miles": {
            "estimated_diameter_min": 0.0125286985,
            "estimated_diameter_max": 0.0280150214
        },
        "feet": {
            "estimated_diameter_min": 66.1515504905,
            "estimated_diameter_max": 147.9193637137
        }
    },
    "is_potentially_hazardous_asteroid": false,
    "close_approach_data": [
        {
            "close_approach_date": "2011-10-28",
            "close_approach_date_full": "2011-Oct-28 01:05",
            "epoch_date_close_approach": 1319763900000,
            "relative_velocity": {
                "kilometers_per_second": "14.8942577023",
                "kilometers_per_hour": "53619.327728437",
                "miles_per_hour": "33316.9650543724"
            },
            "miss_distance": {
                "astronomical": "0.0279742857",
                "lunar": "10.8819971373",
                "kilometers": "4184893.555491459",
                "miles": "2600372.2745177742"
            },
            "orbiting_body": "Earth"
        }
    ],
    "orbital_data": {
        "orbit_id": "6",
        "orbit_determination_date": "2017-04-06 08:52:18",
        "first_observation_date": "2011-10-21",
        "last_observation_date": "2011-10-25",
        "data_arc_in_days": 4,
        "observations_used": 22,
        "orbit_uncertainty": "8",
        "minimum_orbit_intersection": ".0274399",
        "jupiter_tisserand_invariant": "3.240",
        "epoch_osculation": "2455857.5",
        "eccentricity": ".6499150010268399",
        "semi_major_axis": "2.335866022152542",
        "inclination": "6.098901410023342",
        "ascending_node_longitude": "20.14722229133916",
        "orbital_period": "1303.978170231618",
        "perihelion_distance": ".8177516539667123",
        "perihelion_argument": "72.08756306636779",
        "aphelion_distance": "3.853980390338372",
        "perihelion_time": "2455901.430082527604",
        "mean_anomaly": "347.8718600732953",
        "mean_motion": ".2760782413528098",
        "equinox": "J2000",
        "orbit_class": {
            "orbit_class_type": "APO",
            "orbit_class_description": "Near-Earth asteroid orbits which cross the Earth’s orbit similar to that of 1862 Apollo",
            "orbit_class_range": "a (semi-major axis) > 1.0 AU; q (perihelion) < 1.017 AU"
        }
    },
    "is_sentry_object": false
}